[
    {
        "CCSDS_OMM_VERS": "3.0",
        "COMMENT": "GENERATED VIA SPACE-TRACK.ORG API",
        "CREATION_DATE": "2025-04-12T22:09:39",
        "ORIGINATOR": "18 SPCS",
        "OBJECT_NAME": "GALILEO 13 (26A)",
        "OBJECT_ID": "2016-030B",
        "CENTER_NAME": "EARTH",
        "REF_FRAME": "TEME",
        "TIME_SYSTEM": "UTC",
        "MEAN_ELEMENT_THEORY": "SGP4",
        "EPOCH": "2025-04-12T12:01:23.865888",
        "MEAN_MOTION": "1.70474101",
        "ECCENTRICITY": "0.00020130",
        "INCLINATION": "55.2413",
        "RA_OF_ASC_NODE": "233.5367",
        "ARG_OF_PERICENTER": "203.5336",
        "MEAN_ANOMALY": "156.4055",
        "EPHEMERIS_TYPE": "0",
        "CLASSIFICATION_TYPE": "U",
        "NORAD_CAT_ID": "41550",
        "ELEMENT_SET_NO": "999",
        "REV_AT_EPOCH": "5532",
        "BSTAR": "0.00000000000000",
        "MEAN_MOTION_DOT": "-0.00000020",
        "MEAN_MOTION_DDOT": "0.0000000000000",
        "SEMIMAJOR_AXIS": "29600.308",
        "PERIOD": "844.703",
        "APOAPSIS": "23228.132",
        "PERIAPSIS": "23216.215",
        "OBJECT_TYPE": "PAYLOAD",
        "RCS_SIZE": "LARGE",
        "COUNTRY_CODE": "ESA",
        "LAUNCH_DATE": "2016-05-24",
        "SITE": "FRGUI",
        "DECAY_DATE": null,
        "FILE": "4699941",
        "GP_ID": "285446197",
        "TLE_LINE0": "0 GALILEO 13 (26A)",
        "TLE_LINE1": "1 41550U 16030B   25102.50097067 -.00000020  00000-0  00000-0 0  9992",
        "TLE_LINE2": "2 41550  55.2413 233.5367 0002013 203.5336 156.4055  1.70474101 55320"
    }
]